CALSPHERE 1             
1 00900U 64063C   21211.78781431  .00000226  00000-0  23264-3 0  9994
2 00900  90.1616  35.1894 0025109 269.1671 151.8103 13.73564139826505
CALSPHERE 2             
1 00902U 64063E   21211.74783185  .00000012  00000-0  51815-5 0  9998
2 00902  90.1729  38.0560 0018538   8.0354   4.0389 13.52698089615735
LCS 1                   
1 01361U 65034C   21211.29809905  .00000009  00000-0  87459-4 0  9994
2 01361  32.1434  90.1882 0012020 178.1128 181.9416  9.89299647 33325
TEMPSAT 1               
1 01512U 65065E   21211.49605321  .00000013  00000-0  77116-5 0  9999
2 01512  89.8920 221.5990 0068798 213.2814 300.4251 13.33436721722463
CALSPHERE 4A            
1 01520U 65065H   21211.71652289  .00000067  00000-0  11080-3 0  9993
2 01520  90.0150 130.0764 0071907  90.1685 302.0969 13.35848604725116
OPS 5712 (P/L 160)      
1 02826U 67053A   21211.51050554  .00000533  00000-0  15474-3 0  9996
2 02826  69.9290 323.6284 0004418  68.9833 291.1772 14.49593099806069
LES-5                   
1 02866U 67066E   21211.30509778 -.00000099  00000-0  00000+0 0  9991
2 02866   1.9750 260.8644 0052269  15.3674  68.2211  1.09425792111514
SURCAL 159              
1 02872U 67053F   21211.79642929 -.00000016  00000-0  26394-4 0  9991
2 02872  69.9723 236.1717 0009393 278.5042  81.5001 13.98856513761307
OPS 5712 (P/L 153)      
1 02874U 67053H   21211.29687027 -.00000032  00000-0  15239-4 0  9990
2 02874  69.9755 335.1593 0008381 332.6644  27.4019 13.96372773757854
SURCAL 150B             
1 02909U 67053J   21211.78105818  .00000795  00000-0  17025-3 0  9995
2 02909  69.9487 327.6579 0002070 133.0883 227.0430 14.62458401817064
RIGIDSPHERE 2 (LCS 4)   
1 05398U 71067E   21211.40180786  .00000174  00000-0  54794-4 0  9992
2 05398  87.6218 111.9126 0064088   9.7243 350.5177 14.34015352618103
OSCAR 7 (AO-7)          
1 07530U 74089B   21211.44844547 -.00000036  00000-0  63342-4 0  9992
2 07530 101.8566 185.9107 0011932 301.2916 233.8998 12.53649588137119
STARLETTE               
1 07646U 75010A   21211.54222823 -.00000130  00000-0  90610-5 0  9997
2 07646  49.8256 300.7753 0205677 294.1622  63.7891 13.82309490347958
LAGEOS 1                
1 08820U 76039A   21211.43643677 -.00000011  00000-0  00000-0 0  9993
2 08820 109.8553 288.6800 0045227 323.3804  26.4051  6.38665036799495
PHASE 3B (AO-10)        
1 14129U 83058B   21211.25011237  .00000029  00000-0  00000+0 0  9999
2 14129  26.1909 147.8232 5999070 355.4700   0.8075  2.05868664258781
UOSAT 2 (UO-11)         
1 14781U 84021B   21211.43285793  .00000148  00000-0  24112-4 0  9991
2 14781  97.5937 209.1600 0007142 307.0330  53.0230 14.83307506992304
AJISAI (EGS)            
1 16908U 86061A   21211.55405642 -.00000094  00000-0  21834-4 0  9999
2 16908  50.0073 228.8374 0011336 322.7411 141.7846 12.44494461258419
TDRS 3                  
1 19548U 88091B   21211.39461451 -.00000306  00000-0  00000+0 0  9992
2 19548  13.9354 353.9137 0033741 326.0269  81.4931  1.00269003107499
COSMOS 1989 (ETALON 1)  
1 19751U 89001C   21211.68309733 -.00000009  00000-0  00000+0 0  9996
2 19751  64.2369 133.4518 0023309 212.1486 288.6422  2.13156350253447
COSMOS 2024 (ETALON 2)  
1 20026U 89039C   21211.71266306 -.00000062  00000-0  00000+0 0  9995
2 20026  65.5497  11.2862 0018316 219.2572 160.3983  2.13204445250490
FLTSATCOM 8 (USA 46)    
1 20253U 89077A   21211.42423801 -.00000086  00000-0  00000-0 0  9999
2 20253  12.9459   2.4582 0006825 106.6747  63.7525  1.00273387242734
LUSAT (LO-19)           
1 20442U 90005G   21211.28922608  .00000011  00000-0  20468-4 0  9996
2 20442  98.7438 167.1524 0012538  39.5682 320.6415 14.32992712646963
HST                     
1 20580U 90037B   21211.49989939  .00000634  00000-0  27374-4 0  9991
2 20580  28.4695 140.2425 0002804 163.1511   0.1167 15.09693121517770
SKYNET 4C               
1 20776U 90079A   21211.56007934  .00000119  00000-0  00000+0 0  9998
2 20776  13.8896   2.5460 0002530 145.1647  36.1349  1.00270257113065
TDRS 5                  
1 21639U 91054B   21211.72812372  .00000078  00000-0  00000+0 0  9993
2 21639  14.2519   7.2335 0023994  11.1549  24.7139  1.00270125109838
GEOTAIL                 
1 22049U 92044A   21202.60406185 -.00000662  00000-0  00000+0 0  9997
2 22049  40.2163  41.6806 5202138 184.4482   0.2382  0.19234031 12317
LAGEOS 2                
1 22195U 92070B   21211.68640299 -.00000009  00000-0  00000+0 0  9997
2 22195  52.6695 313.1748 0137505 127.8720 256.2486  6.47293611680229
TDRS 6                  
1 22314U 93003B   21211.39904856 -.00000302  00000-0  00000-0 0  9994
2 22314  14.1018  10.4349 0009378 109.6623 285.9176  1.00268070104539
SCD 1                   
1 22490U 93009B   21211.79741984  .00000222  00000-0  10979-4 0  9990
2 22490  24.9712  37.1984 0043045  19.8308  89.9819 14.44614571503392
UFO 2 (USA 95)          
1 22787U 93056A   21211.11824366  .00000118  00000-0  00000-0 0  9997
2 22787  11.3886  12.9260 0002920 160.6234 205.7729  1.00266824100675
STELLA                  
1 22824U 93061B   21211.52944561 -.00000050  00000-0 -12878-5 0  9998
2 22824  98.9766 219.0073 0006631  16.2938 132.1731 14.27384887450450
EYESAT A (AO-27)        
1 22825U 93061C   21211.33623263 -.00000012  00000-0  13268-4 0  9991
2 22825  98.9162 230.0012 0007335 270.1468  89.8872 14.30120348452111
ITAMSAT (IO-26)         
1 22826U 93061D   21211.78610888 -.00000002  00000-0  17040-4 0  9991
2 22826  98.9104 230.3666 0007892 254.1196 105.9115 14.30460183452679
USA 99 (MILSTAR-1 1)    
1 22988U 94009A   21211.48732602 -.00000205  00000-0  00000-0 0  9998
2 22988  14.8215  46.5590 0003593  80.4394 266.8000  1.00272925 15083
ASTRA 1D                
1 23331U 94070A   21211.46699859 -.00000276  00000-0  00000-0 0  9991
2 23331   9.6621  39.8050 0003724  90.9342 272.7273  1.00271510 98415
USA 107 (DSP 17)        
1 23435U 94084A   21211.44634800 -.00000174  00000-0  00000-0 0  9991
2 23435  14.5845   8.3973 0002394 125.2942 238.7739  1.00275784 15086
RADIO ROSTO (RS-15)     
1 23439U 94085A   21211.62906128 -.00000037  00000-0  15882-3 0  9996
2 23439  64.8152 306.1320 0162272 327.6796  31.4265 11.27569943 95208
UFO 4 (USA 108)         
1 23467U 95003A   21211.36219392 -.00000029  00000-0  00000-0 0  9993
2 23467   9.8468  19.1040 0007212  94.2894 137.5513  1.00273653 97077
AMSC 1                  
1 23553U 95019A   21211.45116236 -.00000100  00000-0  00000-0 0  9999
2 23553  11.6461  28.3640 0003389  58.8644 275.9939  1.00272000 96292
TDRS 7                  
1 23613U 95035B   21211.57355610 -.00000206  00000-0  00000+0 0  9994
2 23613  14.0891   1.1129 0028695  49.1929 189.3243  1.00268935 95275
USA 113                 
1 23628U 95038A   21211.85902269 -.00000346  00000-0  00000+0 0  9997
2 23628  11.7965  27.1921 0001519  73.5037 260.9364  1.00277244 13736
USA 115 (MILSTAR-1 2)   
1 23712U 95060A   21211.66046578 -.00000026  00000-0  00000+0 0  9992
2 23712  13.3945  16.7086 0003025 125.9432 283.6567  1.00270808 13777
POLAR                   
1 23802U 96013A   21211.10371994  .00000246  00000-0  00000+0 0  9996
2 23802  78.7148 244.9663 5983232 269.7724  26.0195  1.29847083121688
INMARSAT 3-F1           
1 23839U 96020A   21211.46408918 -.00000170  00000-0  00000-0 0  9998
2 23839   6.8813  60.0859 0008389  60.5231 267.5581  0.99981185 92427
JAS-2 (FO-29)           
1 24278U 96046B   21211.41107704 -.00000046  00000-0 -11628-4 0  9993
2 24278  98.5648 273.6877 0350898  38.5091 324.0534 13.53105280232055
INMARSAT 3-F2           
1 24307U 96053A   21211.51201233 -.00000237  00000-0  00000-0 0  9996
2 24307   5.7948  69.2976 0009558  35.1158 181.1227  1.00005898 91092
AMC-1 (GE-1)            
1 24315U 96054A   21211.67058247  .00000059  00000-0  00000+0 0  9998
2 24315   4.8652  75.7745 0003057  53.7747 289.4666  1.00273607 91147
INMARSAT 3-F3           
1 24674U 96070A   21211.20117069  .00000126  00000-0  00000-0 0  9997
2 24674   6.4466  63.8363 0006973  56.7120 293.4029  0.99990187 90073
INTELSAT 26 (IS-26)     
1 24732U 97007A   21211.12245378 -.00000026  00000-0  00000-0 0  9999
2 24732   9.6105  40.6013 0004796  55.0513 322.5139  1.00273341 54869
GALAXY 25 (G-25)        
1 24812U 97026A   21211.84706076  .00000150  00000-0  00000+0 0  9991
2 24812   2.8987  86.8244 0004994  19.2683 180.4092  1.00274309 88499
NAVSTAR 43 (USA 132)    
1 24876U 97035A   21211.27902628  .00000042  00000-0  00000-0 0  9990
2 24876  55.4780 168.2417 0050049  53.2705 307.1632  2.00562523176198
INTELSAT 5 (IS-5)       
1 24916U 97046A   21211.66936117  .00000082  00000-0  00000+0 0  9993
2 24916   6.5469  63.1753 0003173  45.8074 303.4913  1.00272548 87749
FORTE                   
1 24920U 97047A   21211.32171681  .00000007  00000-0  26605-4 0  9990
2 24920  69.9540  75.2902 0022982 192.3727 167.6833 14.26435847244324
AMC-3 (GE-3)            
1 24936U 97050A   21211.53896824 -.00000266  00000-0  00000+0 0  9991
2 24936   3.7643  82.4148 0003005  53.8046 294.1813  1.00273056 87579
NSS-5                   
1 24957U 97053A   21211.70695986  .00000097  00000-0  00000+0 0  9993
2 24957   6.7894  61.4344 0003654  64.8253 127.2626  1.00273640 87364
USA 134                 
1 25019U 97065A   21211.44663115 -.00000066  00000-0  00000-0 0  9994
2 25019  10.6830  33.4916 0003553  23.5154 299.6269  1.00272606 15079
NAVSTAR 44 (USA 135)    
1 25030U 97067A   21208.35636478  .00000027  00000-0  00000-0 0  9993
2 25030  55.7679 233.5836 0020787 245.5661 115.2232  1.88438131173042
ASTRA 1G                
1 25071U 97076A   21211.77256128  .00000110  00000-0  00000+0 0  9990
2 25071   5.5158  70.6383 0003686  55.0652 120.4256  1.00274557 86661
ORBCOMM FM08            
1 25112U 97084A   21211.62858422  .00000008  00000-0  48170-4 0  9995
2 25112  45.0163 285.4822 0008883 290.4387  69.5508 14.39286797237004
